ONEWEB-0558             
1 56059U 23043P   24246.86389326  .00000106  00000+0  22505-3 0  9993
2 56059  87.9344  13.8551 0001848 115.4939 244.6386 13.21823470 72067
ONEWEB-0559             
1 56060U 23043Q   24246.85283780 -.00000427  00000+0 -10648-2 0  9993
2 56060  87.9344  13.8539 0001334 111.1803 248.9474 13.21824653 72078
ONEWEB-0566             
1 56061U 23043R   24246.92224915  .00000087  00000+0  17922-3 0  9990
2 56061  87.9342  13.8405 0001847 121.1311 239.0004 13.21824101 72060
ONEWEB-0568             
1 56062U 23043S   24246.88102169 -.00000426  00000+0 -11469-2 0  9990
2 56062  87.9169 358.6545 0002031  94.0034 266.1329 13.16593006 73141
ONEWEB-0575             
1 56064U 23043U   24246.87468240 -.00000095  00000+0 -28318-3 0  9990
2 56064  87.9172 358.6659 0001710  82.3976 277.7350 13.16596073 74040
ONEWEB-0577             
1 56066U 23043W   24247.24199805  .00000169  00000+0  40908-3 0  9991
2 56066  87.9170 358.5883 0001586  74.4169 285.7137 13.16597410 74111
